start=new Date('2023-05-30T00:00:00.000Z').valueOf();
sats=[{"COUNTRY_CODE":"US","TLE_LINE1":"1 56514U 23065M   23149.91667824  .00094440  00000-0  70006-3 0  9996","NORAD_CAT_ID":"56514","ELEMENT_SET_NO":"999","PERIAPSIS":"351.712","MEAN_ANOMALY":"221.6083","DECAY_DATE":null,"OBJECT_ID":"2023-065M","RA_OF_ASC_NODE":"349.2749","CLASSIFICATION_TYPE":"U","CENTER_NAME":"EARTH","PERIOD":"91.611","REF_FRAME":"TEME","MEAN_ELEMENT_THEORY":"SGP4","TIME_SYSTEM":"UTC","SITE":"AFETR","RCS_SIZE":"LARGE","APOAPSIS":"355.402","REV_AT_EPOCH":"290","MEAN_MOTION_DDOT":"0.0000000000000","TLE_LINE2":"2 56514  43.0036 349.2749 0002741 284.3480 221.6083 15.71869291  2902","MEAN_MOTION_DOT":"0.00094440","OBJECT_NAME":"STARLINK-5343","INCLINATION":"43.0036","OBJECT_TYPE":"PAYLOAD","FILE":"3920241","EPHEMERIS_TYPE":"0","LAUNCH_DATE":"2023-05-14","BSTAR":"0.00070006000000","ECCENTRICITY":"0.00027410","MEAN_MOTION":"15.71869291","GP_ID":"232755173","EPOCH":"2023-05-29T22:00:00.999936","SEMIMAJOR_AXIS":"6731.692","ARG_OF_PERICENTER":"284.3480"},{"RCS_SIZE":"LARGE","PERIOD":"91.640","REF_FRAME":"TEME","TIME_SYSTEM":"UTC","MEAN_ELEMENT_THEORY":"SGP4","SITE":"AFETR","RA_OF_ASC_NODE":"349.5778","CENTER_NAME":"EARTH","CLASSIFICATION_TYPE":"U","DECAY_DATE":null,"OBJECT_ID":"2023-065N","PERIAPSIS":"353.655","MEAN_ANOMALY":"94.2073","NORAD_CAT_ID":"56515","ELEMENT_SET_NO":"999","COUNTRY_CODE":"US","TLE_LINE1":"1 56515U 23065N   23149.90956229  .00010312  00000-0  81967-4 0  9991","EPOCH":"2023-05-29T21:49:46.181856","SEMIMAJOR_AXIS":"6733.147","ARG_OF_PERICENTER":"265.8564","MEAN_MOTION":"15.71359857","GP_ID":"232783912","BSTAR":"0.00008196700000","ECCENTRICITY":"0.00020150","FILE":"3920354","EPHEMERIS_TYPE":"0","LAUNCH_DATE":"2023-05-14","INCLINATION":"43.0007","OBJECT_TYPE":"PAYLOAD","OBJECT_NAME":"STARLINK-5348","APOAPSIS":"356.368","MEAN_MOTION_DDOT":"0.0000000000000","REV_AT_EPOCH":"368","TLE_LINE2":"2 56515  43.0007 349.5778 0002015 265.8564  94.2073 15.71359857  3688","MEAN_MOTION_DOT":"0.00010312"},{"DECAY_DATE":null,"OBJECT_ID":"2023-065P","RA_OF_ASC_NODE":"349.5786","CENTER_NAME":"EARTH","CLASSIFICATION_TYPE":"U","PERIOD":"91.640","REF_FRAME":"TEME","TIME_SYSTEM":"UTC","MEAN_ELEMENT_THEORY":"SGP4","SITE":"AFETR","RCS_SIZE":"LARGE","COUNTRY_CODE":"US","TLE_LINE1":"1 56516U 23065P   23149.90977298  .00015114  00000-0  11844-3 0  9992","NORAD_CAT_ID":"56516","ELEMENT_SET_NO":"999","PERIAPSIS":"353.761","MEAN_ANOMALY":"97.7286","ECCENTRICITY":"0.00018340","BSTAR":"0.00011844000000","MEAN_MOTION":"15.71365293","GP_ID":"232783975","EPOCH":"2023-05-29T21:50:04.385472","SEMIMAJOR_AXIS":"6733.131","ARG_OF_PERICENTER":"262.3374","REV_AT_EPOCH":"368","APOAPSIS":"356.231","MEAN_MOTION_DDOT":"0.0000000000000","TLE_LINE2":"2 56516  43.0006 349.5786 0001834 262.3374  97.7286 15.71365293  3681","MEAN_MOTION_DOT":"0.00015114","OBJECT_NAME":"STARLINK-5342","INCLINATION":"43.0006","OBJECT_TYPE":"PAYLOAD","FILE":"3920354","EPHEMERIS_TYPE":"0","LAUNCH_DATE":"2023-05-14"},{"OBJECT_TYPE":"PAYLOAD","INCLINATION":"43.0001","FILE":"3920354","EPHEMERIS_TYPE":"0","LAUNCH_DATE":"2023-05-14","MEAN_MOTION_DDOT":"0.0000000000000","APOAPSIS":"356.319","REV_AT_EPOCH":"368","TLE_LINE2":"2 56517  43.0001 349.5756 0001935 264.8344  95.2303 15.71358301  3685","MEAN_MOTION_DOT":"0.00008993","OBJECT_NAME":"STARLINK-5345","MEAN_MOTION":"15.71358301","GP_ID":"232784089","EPOCH":"2023-05-29T21:49:18.971904","ARG_OF_PERICENTER":"264.8344","SEMIMAJOR_AXIS":"6733.151","ECCENTRICITY":"0.00019350","BSTAR":"0.00007193900000","NORAD_CAT_ID":"56517","ELEMENT_SET_NO":"999","PERIAPSIS":"353.713","MEAN_ANOMALY":"95.2303","TLE_LINE1":"1 56517U 23065Q   23149.90924736  .00008993  00000-0  71939-4 0  9991","COUNTRY_CODE":"US","PERIOD":"91.640","REF_FRAME":"TEME","TIME_SYSTEM":"UTC","MEAN_ELEMENT_THEORY":"SGP4","SITE":"AFETR","RCS_SIZE":"LARGE","DECAY_DATE":null,"OBJECT_ID":"2023-065Q","RA_OF_ASC_NODE":"349.5756","CENTER_NAME":"EARTH","CLASSIFICATION_TYPE":"U"},{"RCS_SIZE":"LARGE","TIME_SYSTEM":"UTC","MEAN_ELEMENT_THEORY":"SGP4","SITE":"AFETR","PERIOD":"91.641","REF_FRAME":"TEME","CENTER_NAME":"EARTH","CLASSIFICATION_TYPE":"U","RA_OF_ASC_NODE":"349.5760","DECAY_DATE":null,"OBJECT_ID":"2023-065R","MEAN_ANOMALY":"95.8320","PERIAPSIS":"353.689","ELEMENT_SET_NO":"999","NORAD_CAT_ID":"56518","COUNTRY_CODE":"US","TLE_LINE1":"1 56518U 23065R   23149.90945728  .00007501  00000-0  60590-4 0  9991","SEMIMAJOR_AXIS":"6733.156","ARG_OF_PERICENTER":"264.2322","EPOCH":"2023-05-29T21:49:37.108992","MEAN_MOTION":"15.71356403","GP_ID":"232784275","ECCENTRICITY":"0.00019790","BSTAR":"0.00006059000000","EPHEMERIS_TYPE":"0","LAUNCH_DATE":"2023-05-14","FILE":"3920354","OBJECT_TYPE":"PAYLOAD","INCLINATION":"43.0007","OBJECT_NAME":"STARLINK-5346","TLE_LINE2":"2 56518  43.0007 349.5760 0001979 264.2322  95.8320 15.71356403  3681","MEAN_MOTION_DOT":"0.00007501","MEAN_MOTION_DDOT":"0.0000000000000","APOAPSIS":"356.354","REV_AT_EPOCH":"368"},{"PERIAPSIS":"353.622","MEAN_ANOMALY":"97.2989","NORAD_CAT_ID":"56519","ELEMENT_SET_NO":"999","COUNTRY_CODE":"US","TLE_LINE1":"1 56519U 23065S   23149.90903714  .00005038  00000-0  41852-4 0  9994","RCS_SIZE":"LARGE","REF_FRAME":"TEME","PERIOD":"91.641","SITE":"AFETR","MEAN_ELEMENT_THEORY":"SGP4","TIME_SYSTEM":"UTC","RA_OF_ASC_NODE":"349.5726","CENTER_NAME":"EARTH","CLASSIFICATION_TYPE":"U","OBJECT_ID":"2023-065S","DECAY_DATE":null,"FILE":"3920354","LAUNCH_DATE":"2023-05-14","EPHEMERIS_TYPE":"0","OBJECT_TYPE":"PAYLOAD","INCLINATION":"43.0006","OBJECT_NAME":"STARLINK-6313","REV_AT_EPOCH":"368","APOAPSIS":"356.444","MEAN_MOTION_DDOT":"0.0000000000000","MEAN_MOTION_DOT":"0.00005038","TLE_LINE2":"2 56519  43.0006 349.5726 0002096 262.7640  97.2989 15.71352402  3682","EPOCH":"2023-05-29T21:49:00.808896","SEMIMAJOR_AXIS":"6733.168","ARG_OF_PERICENTER":"262.7640","GP_ID":"232784163","MEAN_MOTION":"15.71352402","ECCENTRICITY":"0.00020960","BSTAR":"0.00004185200000"},{"COUNTRY_CODE":"US","TLE_LINE1":"1 56520U 23065T   23149.90935252  .00012970  00000-0  10216-3 0  9990","MEAN_ANOMALY":"92.4616","PERIAPSIS":"353.792","ELEMENT_SET_NO":"999","NORAD_CAT_ID":"56520","CLASSIFICATION_TYPE":"U","CENTER_NAME":"EARTH","RA_OF_ASC_NODE":"349.5759","OBJECT_ID":"2023-065T","DECAY_DATE":null,"RCS_SIZE":"LARGE","SITE":"AFETR","TIME_SYSTEM":"UTC","MEAN_ELEMENT_THEORY":"SGP4","REF_FRAME":"TEME","PERIOD":"91.640","OBJECT_NAME":"STARLINK-6344","MEAN_MOTION_DOT":"0.00012970","TLE_LINE2":"2 56520  43.0009 349.5759 0001794 267.6047  92.4616 15.71363915  3687","APOAPSIS":"356.208","REV_AT_EPOCH":"368","MEAN_MOTION_DDOT":"0.0000000000000","LAUNCH_DATE":"2023-05-14","EPHEMERIS_TYPE":"0","FILE":"3920354","INCLINATION":"43.0009","OBJECT_TYPE":"PAYLOAD","ECCENTRICITY":"0.00017940","BSTAR":"0.00010216000000","ARG_OF_PERICENTER":"267.6047","SEMIMAJOR_AXIS":"6733.135","EPOCH":"2023-05-29T21:49:28.057728","GP_ID":"232784225","MEAN_MOTION":"15.71363915"},{"BSTAR":"0.00007442500000","ECCENTRICITY":"0.00017610","EPOCH":"2023-05-29T21:48:42.651072","ARG_OF_PERICENTER":"276.3609","SEMIMAJOR_AXIS":"6733.146","MEAN_MOTION":"15.71359996","GP_ID":"232784338","OBJECT_NAME":"STARLINK-6333","APOAPSIS":"356.197","MEAN_MOTION_DDOT":"0.0000000000000","REV_AT_EPOCH":"368","TLE_LINE2":"2 56521  43.0007 349.5726 0001761 276.3609  83.7058 15.71359996  3682","MEAN_MOTION_DOT":"0.00009320","FILE":"3920354","EPHEMERIS_TYPE":"0","LAUNCH_DATE":"2023-05-14","INCLINATION":"43.0007","OBJECT_TYPE":"PAYLOAD","RA_OF_ASC_NODE":"349.5726","CLASSIFICATION_TYPE":"U","CENTER_NAME":"EARTH","DECAY_DATE":null,"OBJECT_ID":"2023-065U","RCS_SIZE":"LARGE","PERIOD":"91.640","REF_FRAME":"TEME","TIME_SYSTEM":"UTC","MEAN_ELEMENT_THEORY":"SGP4","SITE":"AFETR","TLE_LINE1":"1 56521U 23065U   23149.90882698  .00009320  00000-0  74425-4 0  9994","COUNTRY_CODE":"US","PERIAPSIS":"353.826","MEAN_ANOMALY":"83.7058","NORAD_CAT_ID":"56521","ELEMENT_SET_NO":"999"},{"LAUNCH_DATE":"2023-05-14","EPHEMERIS_TYPE":"0","FILE":"3920354","INCLINATION":"43.0008","OBJECT_TYPE":"PAYLOAD","OBJECT_NAME":"STARLINK-6327","MEAN_MOTION_DOT":"0.00009425","TLE_LINE2":"2 56522  43.0008 349.5744 0001867 272.4267  87.6387 15.71361069  3680","APOAPSIS":"356.265","REV_AT_EPOCH":"368","MEAN_MOTION_DDOT":"0.0000000000000","SEMIMAJOR_AXIS":"6733.143","ARG_OF_PERICENTER":"272.4267","EPOCH":"2023-05-29T21:49:09.838560","GP_ID":"232784027","MEAN_MOTION":"15.71361069","BSTAR":"0.00007521700000","ECCENTRICITY":"0.00018670","MEAN_ANOMALY":"87.6387","PERIAPSIS":"353.751","ELEMENT_SET_NO":"999","NORAD_CAT_ID":"56522","COUNTRY_CODE":"US","TLE_LINE1":"1 56522U 23065V   23149.90914165  .00009425  00000-0  75217-4 0  9996","RCS_SIZE":"LARGE","SITE":"AFETR","MEAN_ELEMENT_THEORY":"SGP4","TIME_SYSTEM":"UTC","REF_FRAME":"TEME","PERIOD":"91.640","CLASSIFICATION_TYPE":"U","CENTER_NAME":"EARTH","RA_OF_ASC_NODE":"349.5744","OBJECT_ID":"2023-065V","DECAY_DATE":null},{"OBJECT_TYPE":"PAYLOAD","INCLINATION":"43.0006","FILE":"3920354","EPHEMERIS_TYPE":"0","LAUNCH_DATE":"2023-05-14","MEAN_MOTION_DDOT":"0.0000000000000","APOAPSIS":"356.131","REV_AT_EPOCH":"368","TLE_LINE2":"2 56523  43.0006 349.5699 0001651 265.6541  94.4138 15.71357097  3684","MEAN_MOTION_DOT":"0.00001881","OBJECT_NAME":"STARLINK-6328","MEAN_MOTION":"15.71357097","GP_ID":"232783913","EPOCH":"2023-05-29T21:48:24.367968","ARG_OF_PERICENTER":"265.6541","SEMIMAJOR_AXIS":"6733.155","ECCENTRICITY":"0.00016510","BSTAR":"0.00001778900000","NORAD_CAT_ID":"56523","ELEMENT_SET_NO":"999","PERIAPSIS":"353.908","MEAN_ANOMALY":"94.4138","COUNTRY_CODE":"US","TLE_LINE1":"1 56523U 23065W   23149.90861537  .00001881  00000-0  17789-4 0  9999","PERIOD":"91.641","REF_FRAME":"TEME","TIME_SYSTEM":"UTC","MEAN_ELEMENT_THEORY":"SGP4","SITE":"AFETR","RCS_SIZE":"LARGE","DECAY_DATE":null,"OBJECT_ID":"2023-065W","RA_OF_ASC_NODE":"349.5699","CLASSIFICATION_TYPE":"U","CENTER_NAME":"EARTH"}];
